[{"OBJECT_NAME":"LEMUR-2-LIA-MARTIN","OBJECT_ID":"2025-052AQ","EPOCH":"2026-03-09T16:52:54.660288","MEAN_MOTION":14.96805944,"ECCENTRICITY":0.00038171,"INCLINATION":97.6996,"RA_OF_ASC_NODE":322.6614,"ARG_OF_PERICENTER":139.7155,"MEAN_ANOMALY":220.435,"EPHEMERIS_TYPE":0,"CLASSIFICATION_TYPE":"U","NORAD_CAT_ID":63248,"ELEMENT_SET_NO":999,"REV_AT_EPOCH":5379,"BSTAR":0.0006082839,"MEAN_MOTION_DOT":6.911e-5,"MEAN_MOTION_DDOT":0},{"OBJECT_NAME":"STARLINK-34668","OBJECT_ID":"2025-150AA","EPOCH":"2026-03-09T12:29:16.699488","MEAN_MOTION":14.98347824,"ECCENTRICITY":0.000305,"INCLINATION":70.0026,"RA_OF_ASC_NODE":134.7911,"ARG_OF_PERICENTER":263.5528,"MEAN_ANOMALY":96.5283,"EPHEMERIS_TYPE":0,"CLASSIFICATION_TYPE":"U","NORAD_CAT_ID":64814,"ELEMENT_SET_NO":999,"REV_AT_EPOCH":3649,"BSTAR":0.00040691444,"MEAN_MOTION_DOT":4.768e-5,"MEAN_MOTION_DDOT":0}]
